NORAD_CAT_ID,OBJECT_NAME,OBJECT_TYPE,EPOCH,MEAN_MOTION,ECCENTRICITY,INCLINATION,RA_OF_ASC_NODE,ARG_OF_PERICENTER,MEAN_ANOMALY,BSTAR,MEAN_MOTION_DOT,MEAN_MOTION_DDOT,TLE_LINE0,TLE_LINE1,TLE_LINE2,SEMIMAJOR_AXIS,PERIOD,APOGEE,PERIGEE,DECAYED
56449.0,STARLINK-5993,PAYLOAD,2024-01-18 22:45:18,14.98328872,0.0002563,70.0015,313.1833,243.7314,116.3582,1.4447e-05,7.9e-07,0.0,0 STARLINK-5993,1 56449U 23064B   24018.94812538  .00000079  00000-0  14447-4 0  9998,2 56449  70.0015 313.1833 0002563 243.7314 116.3582 14.98328872 38295,6950.196,96.107,573.843,570.28,0.0
56449.0,STARLINK-5993,PAYLOAD,2024-01-19 03:33:42,14.98333077,0.0002552,70.0014,312.6786,242.5887,117.5013,5.7705e-07,-8.6e-07,0.0,0 STARLINK-5993,1 56449U 23064B   24019.14840301 -.00000086  00000-0  57705-6 0  9995,2 56449  70.0014 312.6786 0002552 242.5887 117.5013 14.98333077 38683,6950.183,96.107,573.822,570.275,0.0
56449.0,STARLINK-5993,PAYLOAD,2024-01-19 05:09:49,14.98335104,0.0002637,70.0005,312.5086,257.3466,102.7398,4.2303e-05,4.12e-06,0.0,0 STARLINK-5993,1 56449U 23064B   24019.21516097  .00000412  00000-0  42303-4 0  9993,2 56449  70.0005 312.5086 0002637 257.3466 102.7398 14.98335104 38333,6950.177,96.107,573.875,570.209,0.0
56449.0,STARLINK-5993,PAYLOAD,2024-01-19 22:47:18,14.98327507,0.0002702,70.0006,310.6574,258.6563,101.4292,4.697e-05,4.67e-06,0.0,0 STARLINK-5993,1 56449U 23064B   24019.94952497  .00000467  00000-0  46970-4 0  9995,2 56449  70.0006 310.6574 0002702 258.6563 101.4292 14.98327507 38449,6950.201,96.107,573.944,570.188,0.0
56449.0,STARLINK-5993,PAYLOAD,2024-01-20 03:35:42,14.98332725,0.0003024,69.9994,310.1514,266.3758,93.7055,6.8753e-05,7.27e-06,0.0,0 STARLINK-5993,1 56449U 23064B   24020.14980124  .00000727  00000-0  68753-4 0  9999,2 56449  69.9994 310.1514 0003024 266.3758  93.7055 14.98332725 38832,6950.184,96.107,574.151,569.948,0.0
56449.0,STARLINK-5993,PAYLOAD,2024-01-20 14:48:40,14.98323903,0.0002915,69.9996,308.9732,265.3799,94.7027,-5.4274e-05,-7.4e-06,0.0,0 STARLINK-5993,1 56449U 23064B   24020.61712963 -.00000740  00000-0 -54274-4 0  9995,2 56449  69.9996 308.9732 0002915 265.3799  94.7027 14.98323903 38549,6950.212,96.107,574.103,570.051,0.0
56449.0,STARLINK-5993,PAYLOAD,2024-01-20 19:37:04,14.98328171,0.0003003,69.9997,308.4683,266.7224,93.3591,-0.00010208,-1.311e-05,0.0,0 STARLINK-5993,1 56449U 23064B   24020.81740954 -.00001311  00000-0 -10208-3 0  9991,2 56449  69.9997 308.4683 0003003 266.7224  93.3591 14.98328171 38933,6950.199,96.107,574.151,569.976,0.0
56449.0,STARLINK-5993,PAYLOAD,2024-01-20 22:49:20,14.98330886,0.0003046,69.9998,308.1316,267.073,93.0081,-8.8942e-05,-1.154e-05,0.0,0 STARLINK-5993,1 56449U 23064B   24020.95092701 -.00001154  00000-0 -88942-4 0  9992,2 56449  69.9998 308.1316 0003046 267.0730  93.0081 14.98330886 38596,6950.19,96.107,574.172,569.938,0.0
56449.0,STARLINK-5993,PAYLOAD,2024-01-21 03:37:43,14.98337082,0.0003065,69.9996,307.6263,268.1923,91.8885,-1.8088e-05,-3.09e-06,0.0,0 STARLINK-5993,1 56449U 23064B   24021.15120078 -.00000309  00000-0 -18088-4 0  9999,2 56449  69.9996 307.6263 0003065 268.1923  91.8885 14.98337082 38982,6950.171,96.107,574.166,569.906,0.0
56449.0,STARLINK-5993,PAYLOAD,2024-01-21 05:13:51,14.98338732,0.0003063,69.9996,307.458,268.2825,91.7983,1.5078e-06,-7.5e-07,0.0,0 STARLINK-5993,1 56449U 23064B   24021.21795902 -.00000075  00000-0  15078-5 0  9996,2 56449  69.9996 307.4580 0003063 268.2825  91.7983 14.98338732 38635,6950.166,96.106,574.16,569.902,0.0
56449.0,STARLINK-5993,PAYLOAD,2024-01-21 13:14:33,14.98322043,0.000309,69.9996,306.6164,269.7257,90.3548,-9.5546e-05,-1.233e-05,0.0,0 STARLINK-5993,1 56449U 23064B   24021.55177097 -.00001233  00000-0 -95546-4 0  9997,2 56449  69.9996 306.6164 0003090 269.7257  90.3548 14.98322043 39045,6950.217,96.108,574.23,569.935,0.0
56449.0,STARLINK-5993,PAYLOAD,2024-01-21 19:39:04,14.98328086,0.0003033,69.9995,305.9429,268.9095,91.1717,-2.1696e-05,-3.52e-06,0.0,0 STARLINK-5993,1 56449U 23064B   24021.81880589 -.00000352  00000-0 -21696-4 0  9999,2 56449  69.9995 305.9429 0003033 268.9095  91.1717 14.98328086 39082,6950.199,96.107,574.172,569.956,0.0
56449.0,STARLINK-5993,PAYLOAD,2024-01-21 22:51:20,14.98331488,0.0003032,69.9995,305.6063,269.1759,90.9053,1.6023e-05,9.8e-07,0.0,0 STARLINK-5993,1 56449U 23064B   24021.95232270  .00000098  00000-0  16023-4 0  9995,2 56449  69.9995 305.6063 0003032 269.1759  90.9053 14.98331488 38744,6950.188,96.107,574.161,569.946,0.0
56449.0,STARLINK-5993,PAYLOAD,2024-01-22 03:39:44,14.98336914,0.0003026,69.9995,305.1013,269.3658,90.7154,7.4235e-05,7.93e-06,0.0,0 STARLINK-5993,1 56449U 23064B   24022.15259726  .00000793  00000-0  74235-4 0  9994,2 56449  69.9995 305.1013 0003026 269.3658  90.7154 14.98336914 39130,6950.172,96.107,574.14,569.933,0.0
56449.0,STARLINK-5993,PAYLOAD,2024-01-22 05:15:52,14.98338855,0.0003023,69.9995,304.933,269.3958,90.6855,9.4805e-05,1.039e-05,0.0,0 STARLINK-5993,1 56449U 23064B   24022.21935528  .00001039  00000-0  94805-4 0  9991,2 56449  69.9995 304.9330 0003023 269.3958  90.6855 14.98338855 38782,6950.166,96.106,574.132,569.929,0.0
56449.0,STARLINK-5993,PAYLOAD,2024-01-22 11:40:25,14.98326944,0.0003,69.9995,304.2596,271.95,88.1315,-0.00010306,-1.322e-05,0.0,0 STARLINK-5993,1 56449U 23064B   24022.48640688 -.00001322  00000-0 -10306-3 0  9990,2 56449  69.9995 304.2596 0003000 271.9500  88.1315 14.98326944 39180,6950.202,96.107,574.152,569.982,0.0
56449.0,STARLINK-5993,PAYLOAD,2024-01-22 22:53:21,14.98324011,0.0003024,69.9995,303.0815,272.0039,88.0773,3.5322e-05,3.28e-06,0.0,0 STARLINK-5993,1 56449U 23064B   24022.95372658  .00000328  00000-0  35322-4 0  9990,2 56449  69.9995 303.0815 0003024 272.0039  88.0773 14.98324011 38893,6950.211,96.107,574.178,569.975,0.0
56449.0,STARLINK-5993,PAYLOAD,2024-01-23 03:41:45,14.98332652,0.0003031,69.9995,302.5765,272.7561,87.3251,9.6503e-05,1.059e-05,0.0,0 STARLINK-5993,1 56449U 23064B   24023.15399967  .00001059  00000-0  96503-4 0  9995,2 56449  69.9995 302.5765 0003031 272.7561  87.3251 14.98332652 39283,6950.185,96.107,574.156,569.943,0.0
56449.0,STARLINK-5993,PAYLOAD,2024-01-23 05:17:53,14.98335904,0.0003028,69.9994,302.4081,272.5517,87.5296,0.00011029,1.223e-05,0.0,0 STARLINK-5993,1 56449U 23064B   24023.22075708  .00001223  00000-0  11029-3 0  9999,2 56449  69.9994 302.4081 0003028 272.5517  87.5296 14.98335904 38932,6950.175,96.107,574.144,569.935,0.0
56449.0,STARLINK-5993,PAYLOAD,2024-01-23 16:30:50,14.98330395,0.0003031,69.9994,301.2301,270.0563,90.0249,-0.0001047,-1.342e-05,0.0,0 STARLINK-5993,1 56449U 23064B   24023.68808480 -.00001342  00000-0 -10470-3 0  9993,2 56449  69.9994 301.2301 0003031 270.0563  90.0249 14.98330395 39366,6950.192,96.107,574.163,569.95,0.0
56449.0,STARLINK-5993,PAYLOAD,2024-01-23 22:55:22,14.98331935,0.0003039,69.9993,300.5567,269.1098,90.9713,7.2455e-05,7.72e-06,0.0,0 STARLINK-5993,1 56449U 23064B   24023.95511949  .00000772  00000-0  72455-4 0  9990,2 56449  69.9993 300.5567 0003039 269.1098  90.9713 14.98331935 39042,6950.187,96.107,574.164,569.94,0.0
56449.0,STARLINK-5993,PAYLOAD,2024-01-24 02:07:38,14.98336422,0.0003054,69.9994,300.22,269.254,90.8269,0.00010186,1.123e-05,0.0,0 STARLINK-5993,1 56449U 23064B   24024.08863546  .00001123  00000-0  10186-3 0  9991,2 56449  69.9994 300.2200 0003054 269.2540  90.8269 14.98336422 39427,6950.173,96.107,574.161,569.915,0.0
56449.0,STARLINK-5993,PAYLOAD,2024-01-24 08:32:09,14.98346035,0.0003054,69.9993,299.5467,269.0997,90.9812,0.000109,1.208e-05,0.0,0 STARLINK-5993,1 56449U 23064B   24024.35566721  .00001208  00000-0  10900-3 0  9994,2 56449  69.9993 299.5467 0003054 269.0997  90.9812 14.98346035 39465,6950.143,96.106,574.131,569.886,0.0
56449.0,STARLINK-5993,PAYLOAD,2024-01-24 19:45:08,14.98316393,0.0003053,69.9992,298.3684,273.7039,86.377,8.7254e-06,1.1e-07,0.0,0 STARLINK-5993,1 56449U 23064B   24024.82300969  .00000011  00000-0  87254-5 0  9995,2 56449  69.9992 298.3684 0003053 273.7039  86.3770 14.98316393 39534,6950.235,96.108,574.222,569.978,0.0
56449.0,STARLINK-5993,PAYLOAD,2024-01-24 21:21:15,14.98321656,0.0003021,69.9993,298.2004,272.547,87.5343,2.4435e-05,1.98e-06,0.0,0 STARLINK-5993,1 56449U 23064B   24024.88976626  .00000198  00000-0  24435-4 0  9997,2 56449  69.9993 298.2004 0003021 272.5470  87.5343 14.98321656 39189,6950.219,96.108,574.183,569.984,0.0
56449.0,STARLINK-5993,PAYLOAD,2024-01-25 03:45:47,14.98327457,0.0003036,69.9992,297.5266,273.3906,86.6905,3.4861e-05,3.23e-06,0.0,0 STARLINK-5993,1 56449U 23064B   24025.15680294  .00000323  00000-0  34861-4 0  9995,2 56449  69.9992 297.5266 0003036 273.3906  86.6905 14.98327457 39582,6950.201,96.107,574.176,569.956,0.0
56449.0,STARLINK-5993,PAYLOAD,2024-01-25 13:22:36,14.98324873,0.0003017,69.9992,296.517,271.9449,88.1365,-0.00015572,-1.95e-05,0.0,0 STARLINK-5993,1 56449U 23064B   24025.55736931 -.00001950  00000-0 -15572-3 0  9995,2 56449  69.9992 296.5170 0003017 271.9449  88.1365 14.98324873 39283,6950.209,96.107,574.171,569.977,0.0
56449.0,STARLINK-5993,PAYLOAD,2024-01-25 21:23:16,14.98328044,0.000304,69.9992,295.6753,270.7373,89.3437,-9.2549e-06,-2.03e-06,0.0,0 STARLINK-5993,1 56449U 23064B   24025.89116480 -.00000203  00000-0 -92549-5 0  9994,2 56449  69.9992 295.6753 0003040 270.7373  89.3437 14.98328044 39332,6950.199,96.107,574.177,569.951,0.0
56449.0,STARLINK-5993,PAYLOAD,2024-01-26 03:47:48,14.98334359,0.0003032,69.9991,295.002,270.6389,89.4423,2.9573e-05,2.6e-06,0.0,0 STARLINK-5993,1 56449U 23064B   24026.15819985  .00000260  00000-0  29573-4 0  9991,2 56449  69.9991 295.0020 0003032 270.6389  89.4423 14.98334359 39735,6950.179,96.107,574.152,569.937,0.0
56449.0,STARLINK-5993,PAYLOAD,2024-01-26 19:49:09,14.98321306,0.0003071,69.9991,293.3188,271.4676,88.6131,0.00011681,1.301e-05,0.0,0 STARLINK-5993,1 56449U 23064B   24026.82580570  .00001301  00000-0  11681-3 0  9997,2 56449  69.9991 293.3188 0003071 271.4676  88.6131 14.98321306 39838,6950.22,96.108,574.219,569.95,0.0
